NORAD_CAT_ID,OBJECT_NAME,OBJECT_TYPE,EPOCH,MEAN_MOTION,ECCENTRICITY,INCLINATION,RA_OF_ASC_NODE,ARG_OF_PERICENTER,MEAN_ANOMALY,BSTAR,MEAN_MOTION_DOT,MEAN_MOTION_DDOT,TLE_LINE0,TLE_LINE1,TLE_LINE2,SEMIMAJOR_AXIS,PERIOD,APOGEE,PERIGEE,DECAYED
50834.0,STARLINK-3331,PAYLOAD,2023-03-21 05:15:51,15.08868409,0.0001305,53.2183,7.4975,98.48,261.634,0.0013298,0.00020956,0.0,0 STARLINK-3331,1 50834U 22001AH  23080.21934887  .00020956  00000-0  13298-2 0  9997,2 50834  53.2183   7.4975 0001305  98.4800 261.6340 15.08868409 67828,6917.794,95.436,540.561,538.756,0.0
50834.0,STARLINK-3331,PAYLOAD,2023-03-22 03:31:16,15.08838403,0.0001223,53.2191,3.3354,81.7181,278.3949,0.00045144,6.904e-05,0.0,0 STARLINK-3331,1 50834U 22001AH  23081.14671766  .00006904  00000-0  45144-3 0  9997,2 50834  53.2191   3.3354 0001223  81.7181 278.3949 15.08838403 67965,6917.885,95.438,540.596,538.904,0.0
50834.0,STARLINK-3331,PAYLOAD,2023-03-23 03:22:03,15.08857078,0.0001403,53.2182,358.8745,82.479,277.6361,0.0015486,0.00024455,0.0,0 STARLINK-3331,1 50834U 22001AH  23082.14031737  .00024455  00000-0  15486-2 0  9992,2 50834  53.2182 358.8745 0001403  82.4790 277.6361 15.08857078 66835,6917.828,95.436,540.664,538.723,0.0
50834.0,STARLINK-3331,PAYLOAD,2023-03-23 22:26:40,15.08856048,9.72e-05,53.217,355.3056,83.305,276.8052,0.0010028,0.00015715,0.0,0 STARLINK-3331,1 50834U 22001AH  23082.93519509  .00015715  00000-0  10028-2 0  9993,2 50834  53.2170 355.3056 0000972  83.3050 276.8052 15.08856048 66955,6917.831,95.437,540.369,539.024,0.0
50834.0,STARLINK-3331,PAYLOAD,2023-03-24 04:48:12,15.08929116,0.0001196,53.2167,354.116,68.2581,291.8539,0.0062073,0.00100152,0.0,0 STARLINK-3331,1 50834U 22001AH  23083.20015018  .00100152  00000-0  62073-2 0  9997,2 50834  53.2167 354.1160 0001196  68.2581 291.8539 15.08929116 68275,6917.608,95.432,540.3,538.646,0.0
50834.0,STARLINK-3331,PAYLOAD,2023-03-24 22:17:26,15.08873781,0.0001691,53.2154,350.8478,44.6622,315.4506,0.0014893,0.00023516,0.0,0 STARLINK-3331,1 50834U 22001AH  23083.92878457  .00023516  00000-0  14893-2 0  9995,2 50834  53.2154 350.8478 0001691  44.6622 315.4506 15.08873781 67104,6917.777,95.435,540.812,538.472,0.0
50834.0,STARLINK-3331,PAYLOAD,2023-03-25 03:03:35,15.08894101,0.0001562,53.2159,349.9537,85.3371,274.7799,0.0021047,0.00033417,0.0,0 STARLINK-3331,1 50834U 22001AH  23084.12749592  .00033417  00000-0  21047-2 0  9995,2 50834  53.2159 349.9537 0001562  85.3371 274.7799 15.08894101 68419,6917.715,95.434,540.661,538.499,0.0
50834.0,STARLINK-3331,PAYLOAD,2023-03-25 22:08:15,15.0879876,0.0002801,53.217,346.384,44.8379,315.2839,0.00055487,8.544e-05,0.0,0 STARLINK-3331,1 50834U 22001AH  23084.92240051  .00008544  00000-0  55487-3 0  9998,2 50834  53.2170 346.3840 0002801  44.8379 315.2839 15.08798760 67256,6918.006,95.44,541.809,537.934,0.0
50834.0,STARLINK-3331,PAYLOAD,2023-03-26 04:29:48,15.08808304,0.000147,53.2163,345.1958,92.4099,267.7062,0.0018274,0.00028889,0.0,0 STARLINK-3331,1 50834U 22001AH  23085.18736372  .00028889  00000-0  18274-2 0  9999,2 50834  53.2163 345.1958 0001470  92.4099 267.7062 15.08808304 68575,6917.977,95.44,540.859,538.825,0.0
50834.0,STARLINK-3331,PAYLOAD,2023-03-26 21:59:03,15.08843704,0.0001405,53.2164,341.9263,87.7921,272.3232,0.0017148,0.00027111,0.0,0 STARLINK-3331,1 50834U 22001AH  23085.91601131  .00027111  00000-0  17148-2 0  9990,2 50834  53.2164 341.9263 0001405  87.7921 272.3232 15.08843704 67403,6917.869,95.437,540.706,538.762,0.0
50834.0,STARLINK-3331,PAYLOAD,2023-03-27 02:45:12,15.08862517,0.0001377,53.2158,341.0339,85.0196,275.0953,0.0021155,0.00033562,0.0,0 STARLINK-3331,1 50834U 22001AH  23086.11472857  .00033562  00000-0  21155-2 0  9994,2 50834  53.2158 341.0339 0001377  85.0196 275.0953 15.08862517 67430,6917.812,95.436,540.629,538.724,0.0
50834.0,STARLINK-3331,PAYLOAD,2023-03-27 21:49:49,15.08864839,0.0001058,53.2164,337.4658,90.5872,269.5241,0.0015831,0.00025014,0.0,0 STARLINK-3331,1 50834U 22001AH  23086.90960406  .00025014  00000-0  15831-2 0  9990,2 50834  53.2164 337.4658 0001058  90.5872 269.5241 15.08864839 68830,6917.804,95.436,540.401,538.938,0.0
50834.0,STARLINK-3331,PAYLOAD,2023-03-28 02:35:58,15.08877888,0.0001059,53.2167,336.573,83.5288,276.5825,0.0018861,0.00029888,0.0,0 STARLINK-3331,1 50834U 22001AH  23087.10831974  .00029888  00000-0  18861-2 0  9999,2 50834  53.2167 336.5730 0001059  83.5288 276.5825 15.08877888 67583,6917.765,95.435,540.362,538.897,0.0
50834.0,STARLINK-3331,PAYLOAD,2023-03-28 16:54:27,15.088571,0.000151,53.217,333.8967,81.6965,278.4198,0.0012857,0.00020243,0.0,0 STARLINK-3331,1 50834U 22001AH  23087.70448249  .00020243  00000-0  12857-2 0  9999,2 50834  53.2170 333.8967 0001510  81.6965 278.4198 15.08857100 68953,6917.828,95.436,540.738,538.649,0.0
50834.0,STARLINK-3331,PAYLOAD,2023-03-28 21:40:36,15.08851539,0.0001181,53.2167,333.0041,98.2791,261.8335,0.00073694,0.00011464,0.0,0 STARLINK-3331,1 50834U 22001AH  23087.90320061  .00011464  00000-0  73694-3 0  9994,2 50834  53.2167 333.0041 0001181  98.2791 261.8335 15.08851539 67700,6917.845,95.437,540.527,538.893,0.0
50834.0,STARLINK-3331,PAYLOAD,2023-03-29 00:51:22,15.08856502,0.0001114,53.2172,332.41,70.3388,289.7724,0.0009193,0.0001438,0.0,0 STARLINK-3331,1 50834U 22001AH  23088.03568033  .00014380  00000-0  91930-3 0  9995,2 50834  53.2172 332.4100 0001114  70.3388 289.7724 15.08856502 69005,6917.83,95.437,540.466,538.924,0.0
50834.0,STARLINK-3331,PAYLOAD,2023-03-29 23:06:46,15.08859169,0.0001022,53.2167,328.246,81.126,278.9848,0.0014888,0.00023498,0.0,0 STARLINK-3331,1 50834U 22001AH  23088.96304131  .00023498  00000-0  14888-2 0  9990,2 50834  53.2167 328.2460 0001022  81.1260 278.9848 15.08859169 69142,6917.822,95.436,540.394,538.98,0.0
50834.0,STARLINK-3331,PAYLOAD,2023-03-30 02:17:32,15.08869736,0.0001,53.2168,327.6518,79.0883,281.0222,0.0018735,0.00029679,0.0,0 STARLINK-3331,1 50834U 22001AH  23089.09551892  .00029679  00000-0  18735-2 0  9995,2 50834  53.2168 327.6518 0001000  79.0883 281.0222 15.08869736 69167,6917.789,95.436,540.346,538.963,0.0
50834.0,STARLINK-3331,PAYLOAD,2023-03-31 00:32:57,15.08861813,9.43e-05,53.2162,323.4889,98.9756,261.1343,0.0020508,0.00032521,0.0,0 STARLINK-3331,1 50834U 22001AH  23090.02288306  .00032521  00000-0  20508-2 0  9998,2 50834  53.2162 323.4889 0000943  98.9756 261.1343 15.08861813 69307,6917.814,95.436,540.331,539.026,0.0
50834.0,STARLINK-3331,PAYLOAD,2023-03-31 14:51:25,15.0883827,0.0001391,53.2163,320.8125,105.1457,254.9689,0.0019325,0.000306,0.0,0 STARLINK-3331,1 50834U 22001AH  23090.61904715  .00030600  00000-0  19325-2 0  9993,2 50834  53.2163 320.8125 0001391 105.1457 254.9689 15.08838270 69392,6917.886,95.438,540.713,538.788,0.0
50834.0,STARLINK-3331,PAYLOAD,2023-03-31 19:37:35,15.08836022,0.0001199,53.216,319.9193,116.7244,243.3871,0.00060877,9.413e-05,0.0,0 STARLINK-3331,1 50834U 22001AH  23090.81776735  .00009413  00000-0  60877-3 0  9991,2 50834  53.2160 319.9193 0001199 116.7244 243.3871 15.08836022 69423,6917.893,95.438,540.587,538.928,0.0
50834.0,STARLINK-3331,PAYLOAD,2023-04-01 01:59:07,15.0883716,0.0001066,53.2164,318.7303,82.281,277.8303,0.0004632,7.091e-05,0.0,0 STARLINK-3331,1 50834U 22001AH  23091.08272859  .00007091  00000-0  46320-3 0  9996,2 50834  53.2164 318.7303 0001066  82.2810 277.8303 15.08837160 68184,6917.889,95.438,540.492,539.017,0.0
50834.0,STARLINK-3331,PAYLOAD,2023-04-01 21:03:45,15.0884097,0.0001082,53.2162,315.1609,84.7592,275.3524,0.00030451,4.562e-05,0.0,0 STARLINK-3331,1 50834U 22001AH  23091.87761054  .00004562  00000-0  30451-3 0  9991,2 50834  53.2162 315.1609 0001082  84.7592 275.3524 15.08840970 69580,6917.877,95.437,540.491,538.994,0.0
50834.0,STARLINK-3331,PAYLOAD,2023-04-02 14:33:00,15.08843096,9.62e-05,53.2149,311.8899,92.1979,267.9124,0.00025954,3.846e-05,0.0,0 STARLINK-3331,1 50834U 22001AH  23092.60625069  .00003846  00000-0  25954-3 0  9994,2 50834  53.2149 311.8899 0000962  92.1979 267.9124 15.08843096 68413,6917.871,95.437,540.401,539.07,0.0
50834.0,STARLINK-3331,PAYLOAD,2023-04-02 20:54:32,15.08844973,9.55e-05,53.2151,310.7006,87.706,272.4042,0.00024628,3.634e-05,0.0,0 STARLINK-3331,1 50834U 22001AH  23092.87120978  .00003634  00000-0  24628-3 0  9994,2 50834  53.2151 310.7006 0000955  87.7060 272.4042 15.08844973 68456,6917.865,95.437,540.391,539.07,0.0
50834.0,STARLINK-3331,PAYLOAD,2023-04-03 00:05:18,15.08847343,0.0001016,53.215,310.1062,85.0681,275.0427,0.0002594,3.844e-05,0.0,0 STARLINK-3331,1 50834U 22001AH  23093.00368863  .00003844  00000-0  25940-3 0  9998,2 50834  53.2150 310.1062 0001016  85.0681 275.0427 15.08847343 69754,6917.858,95.437,540.426,539.02,0.0
50834.0,STARLINK-3331,PAYLOAD,2023-04-03 20:45:19,15.08845562,0.0001116,53.2149,306.2408,83.5382,276.5738,7.5975e-05,9.22e-06,0.0,0 STARLINK-3331,1 50834U 22001AH  23093.86480808  .00000922  00000-0  75975-4 0  9994,2 50834  53.2149 306.2408 0001116  83.5382 276.5738 15.08845562 69880,6917.863,95.437,540.5,538.956,0.0
50834.0,STARLINK-3331,PAYLOAD,2023-04-04 12:39:10,15.08844337,0.0001257,53.2146,303.2667,90.3901,269.7235,0.00010298,1.352e-05,0.0,0 STARLINK-3331,1 50834U 22001AH  23094.52720769  .00001352  00000-0  10298-3 0  9995,2 50834  53.2146 303.2667 0001257  90.3901 269.7235 15.08844337 68705,6917.867,95.437,540.602,538.863,0.0
50834.0,STARLINK-3331,PAYLOAD,2023-04-04 20:36:05,15.0886183,9.91e-05,53.2146,301.7796,89.6646,270.446,0.00032725,4.927e-05,0.0,0 STARLINK-3331,1 50834U 22001AH  23094.85839613  .00004927  00000-0  32725-3 0  9990,2 50834  53.2146 301.7796 0000991  89.6646 270.4460 15.08861830 70037,6917.814,95.436,540.364,538.993,0.0
50834.0,STARLINK-3331,PAYLOAD,2023-04-04 23:46:51,15.08862772,0.0001011,53.2147,301.185,93.6242,266.4866,0.000319,4.796e-05,0.0,0 STARLINK-3331,1 50834U 22001AH  23094.99087392  .00004796  00000-0  31900-3 0  9992,2 50834  53.2147 301.1850 0001011  93.6242 266.4866 15.08862772 68773,6917.811,95.436,540.375,538.976,0.0
